NORAD_CAT_ID,OBJECT_NAME,OBJECT_TYPE,EPOCH,MEAN_MOTION,ECCENTRICITY,INCLINATION,RA_OF_ASC_NODE,ARG_OF_PERICENTER,MEAN_ANOMALY,BSTAR,MEAN_MOTION_DOT,MEAN_MOTION_DDOT,TLE_LINE0,TLE_LINE1,TLE_LINE2,SEMIMAJOR_AXIS,PERIOD,APOGEE,PERIGEE,DECAYED
53836.0,STARLINK-4778,PAYLOAD,2023-12-28 05:22:39,15.08849417,0.000165,53.2167,296.7329,105.5973,254.5201,0.00020953,3.049e-05,0.0,0 STARLINK-4778,1 53836U 22114U   23362.22406388  .00003049  00000-0  20953-3 0  9992,2 53836  53.2167 296.7329 0001650 105.5973 254.5201 15.08849417 71285,6917.852,95.437,540.858,538.575,0.0
53836.0,STARLINK-4778,PAYLOAD,2023-12-29 02:02:40,15.0884373,0.000149,53.2169,292.8672,84.6108,275.5054,-5.5268e-06,-3.76e-06,0.0,0 STARLINK-4778,1 53836U 22114U   23363.08518738 -.00000376  00000-0 -55268-5 0  9991,2 53836  53.2169 292.8672 0001490  84.6108 275.5054 15.08843730 71410,6917.869,95.437,540.765,538.703,0.0
53836.0,STARLINK-4778,PAYLOAD,2023-12-29 05:13:26,15.08845906,0.0001452,53.2168,292.2708,85.5145,274.6013,5.0149e-05,5.1e-06,0.0,0 STARLINK-4778,1 53836U 22114U   23363.21766648  .00000510  00000-0  50149-4 0  9991,2 53836  53.2168 292.2708 0001452  85.5145 274.6013 15.08845906 71975,6917.862,95.437,540.732,538.723,0.0
53836.0,STARLINK-4778,PAYLOAD,2023-12-29 22:42:40,15.08846251,0.0001332,53.2165,288.9994,100.7468,259.3674,9.4999e-05,1.225e-05,0.0,0 STARLINK-4778,1 53836U 22114U   23363.94630549  .00001225  00000-0  94999-4 0  9996,2 53836  53.2165 288.9994 0001332 100.7468 259.3674 15.08846251 72086,6917.861,95.437,540.648,538.805,0.0
53836.0,STARLINK-4778,PAYLOAD,2023-12-30 05:04:13,15.0885059,0.0001477,53.2168,287.81,95.0028,265.1132,0.00026471,3.929e-05,0.0,0 STARLINK-4778,1 53836U 22114U   23364.21126420  .00003929  00000-0  26471-3 0  9997,2 53836  53.2168 287.8100 0001477  95.0028 265.1132 15.08850590 71583,6917.848,95.437,540.735,538.691,0.0
53836.0,STARLINK-4778,PAYLOAD,2023-12-30 22:33:27,15.08841834,0.0001475,53.216,284.5369,94.6319,265.4841,7.2996e-05,8.74e-06,0.0,0 STARLINK-4778,1 53836U 22114U   23364.93990666  .00000874  00000-0  72996-4 0  9997,2 53836  53.2160 284.5369 0001475  94.6319 265.4841 15.08841834 72236,6917.875,95.437,540.76,538.719,0.0
53836.0,STARLINK-4778,PAYLOAD,2023-12-31 01:44:14,15.08841676,0.0001427,53.2162,283.9418,88.5637,271.5518,5.6154e-05,6.06e-06,0.0,0 STARLINK-4778,1 53836U 22114U   23365.07238541  .00000606  00000-0  56154-4 0  9991,2 53836  53.2162 283.9418 0001427  88.5637 271.5518 15.08841676 71713,6917.875,95.437,540.727,538.753,0.0
53836.0,STARLINK-4778,PAYLOAD,2023-12-31 19:13:29,15.08831238,0.0001532,53.2171,280.672,100.7221,259.3943,0.00013784,1.906e-05,0.0,0 STARLINK-4778,1 53836U 22114U   23365.80103212  .00001906  00000-0  13784-3 0  9993,2 53836  53.2171 280.6720 0001532 100.7221 259.3943 15.08831238 71827,6917.907,95.438,540.832,538.712,0.0
53836.0,STARLINK-4778,PAYLOAD,2023-12-31 22:24:15,15.0883963,0.0001503,53.2167,280.0774,101.8903,258.2257,-7.701e-05,-1.513e-05,0.0,0 STARLINK-4778,1 53836U 22114U   23365.93350827 -.00001513  00000-0 -77010-4 0  9992,2 53836  53.2167 280.0774 0001503 101.8903 258.2257 15.08839630 72384,6917.882,95.438,540.786,538.707,0.0
53836.0,STARLINK-4778,PAYLOAD,2024-01-01 04:45:47,15.08845278,0.000163,53.2177,278.8892,113.7617,246.3546,-7.2429e-07,-3e-06,0.0,0 STARLINK-4778,1 53836U 22114U   24001.19846770 -.00000300  00000-0 -72429-6 0  9999,2 53836  53.2177 278.8892 0001630 113.7617 246.3546 15.08845278 71884,6917.864,95.437,540.857,538.602,0.0
53836.0,STARLINK-4778,PAYLOAD,2024-01-01 22:15:02,15.08842307,0.0001501,53.2171,275.6177,105.1078,255.008,9.4398e-05,1.215e-05,0.0,0 STARLINK-4778,1 53836U 22114U   24001.92710864  .00001215  00000-0  94398-4 0  9995,2 53836  53.2171 275.6177 0001501 105.1078 255.0080 15.08842307 72535,6917.873,95.437,540.777,538.7,0.0
53836.0,STARLINK-4778,PAYLOAD,2024-01-02 03:01:11,15.08846149,0.0001505,53.2166,274.7258,99.6257,260.4905,0.00015857,2.237e-05,0.0,0 STARLINK-4778,1 53836U 22114U   24002.12582563  .00002237  00000-0  15857-3 0  9998,2 53836  53.2166 274.7258 0001505  99.6257 260.4905 15.08846149 72566,6917.862,95.437,540.768,538.685,0.0
53836.0,STARLINK-4778,PAYLOAD,2024-01-02 17:19:39,15.08841898,0.0001447,53.2157,272.0514,108.6614,251.4536,0.00041724,6.359e-05,0.0,0 STARLINK-4778,1 53836U 22114U   24002.72198723  .00006359  00000-0  41724-3 0  9996,2 53836  53.2157 272.0514 0001447 108.6614 251.4536 15.08841898 72112,6917.875,95.437,540.741,538.739,0.0
53836.0,STARLINK-4778,PAYLOAD,2024-01-02 22:05:48,15.08854916,0.0001295,53.2156,271.1616,101.9711,258.1426,0.00021221,3.092e-05,0.0,0 STARLINK-4778,1 53836U 22114U   24002.92069676  .00003092  00000-0  21221-3 0  9993,2 53836  53.2156 271.1616 0001295 101.9711 258.1426 15.08854916 72688,6917.835,95.437,540.596,538.804,0.0
53836.0,STARLINK-4778,PAYLOAD,2024-01-03 01:16:34,15.08861329,0.0001569,53.216,270.5698,74.5584,285.5581,0.00031285,4.697e-05,0.0,0 STARLINK-4778,1 53836U 22114U   24003.05317394  .00004697  00000-0  31285-3 0  9994,2 53836  53.2160 270.5698 0001569  74.5584 285.5581 15.08861329 72168,6917.815,95.436,540.766,538.595,0.0
53836.0,STARLINK-4778,PAYLOAD,2024-01-03 21:56:35,15.08836506,0.0001345,53.2154,266.6999,112.4313,247.6822,-0.000129,-2.34e-05,0.0,0 STARLINK-4778,1 53836U 22114U   24003.91430472 -.00002340  00000-0 -12900-3 0  9990,2 53836  53.2154 266.6999 0001345 112.4313 247.6822 15.08836506 72835,6917.891,95.438,540.687,538.826,0.0
53836.0,STARLINK-4778,PAYLOAD,2024-01-04 01:07:22,15.08834015,0.0001275,53.2149,266.1051,102.7201,257.3934,-0.00014964,-2.668e-05,0.0,0 STARLINK-4778,1 53836U 22114U   24004.04678669 -.00002668  00000-0 -14964-3 0  9992,2 53836  53.2149 266.1051 0001275 102.7201 257.3934 15.08834015 72311,6917.899,95.438,540.646,538.882,0.0
53836.0,STARLINK-4778,PAYLOAD,2024-01-04 21:47:22,15.08843269,0.0001119,53.2148,262.2419,78.5954,281.5164,-5.9603e-05,-1.236e-05,0.0,0 STARLINK-4778,1 53836U 22114U   24004.90790461 -.00001236  00000-0 -59603-4 0  9992,2 53836  53.2148 262.2419 0001119  78.5954 281.5164 15.08843269 72985,6917.87,95.437,540.51,538.961,0.0
53836.0,STARLINK-4778,PAYLOAD,2024-01-05 02:33:31,15.08851207,0.0001474,53.2155,261.3486,86.3366,273.7795,8.0324e-05,9.91e-06,0.0,0 STARLINK-4778,1 53836U 22114U   24005.10661879  .00000991  00000-0  80324-4 0  9994,2 53836  53.2155 261.3486 0001474  86.3366 273.7795 15.08851207 72473,6917.846,95.437,540.731,538.691,0.0
53836.0,STARLINK-4778,PAYLOAD,2024-01-05 16:52:01,15.08831912,0.0001643,53.2178,258.6641,113.4341,246.6824,0.00018768,2.7e-05,0.0,0 STARLINK-4778,1 53836U 22114U   24005.70279160  .00002700  00000-0  18768-3 0  9990,2 53836  53.2178 258.6641 0001643 113.4341 246.6824 15.08831912 72566,6917.905,95.438,540.907,538.633,0.0
53836.0,STARLINK-4778,PAYLOAD,2024-01-05 21:38:10,15.08837148,0.000175,53.2162,257.7758,95.6851,264.434,0.00022863,3.352e-05,0.0,0 STARLINK-4778,1 53836U 22114U   24005.90151267  .00003352  00000-0  22863-3 0  9994,2 53836  53.2162 257.7758 0001750  95.6851 264.4340 15.08837148 73136,6917.889,95.438,540.965,538.543,0.0
53836.0,STARLINK-4778,PAYLOAD,2024-01-06 02:24:20,15.08838452,0.0001355,53.2148,256.8864,87.8353,272.2794,0.00019638,2.839e-05,0.0,0 STARLINK-4778,1 53836U 22114U   24006.10023189  .00002839  00000-0  19638-3 0  9993,2 53836  53.2148 256.8864 0001355  87.8353 272.2794 15.08838452 73161,6917.885,95.438,540.687,538.813,0.0
53836.0,STARLINK-4778,PAYLOAD,2024-01-06 19:53:35,15.08819659,0.0001771,53.2156,253.6138,116.0738,244.0437,0.00065486,0.00010144,0.0,0 STARLINK-4778,1 53836U 22114U   24006.82888090  .00010144  00000-0  65486-3 0  9992,2 53836  53.2156 253.6138 0001771 116.0738 244.0437 15.08819659 72734,6917.943,95.439,541.033,538.582,0.0
53836.0,STARLINK-4778,PAYLOAD,2024-01-06 21:28:58,15.08820387,0.0001751,53.2156,253.3165,113.8126,246.305,0.00062167,9.614e-05,0.0,0 STARLINK-4778,1 53836U 22114U   24006.89512066  .00009614  00000-0  62167-3 0  9999,2 53836  53.2156 253.3165 0001751 113.8126 246.3050 15.08820387 73282,6917.94,95.439,541.017,538.594,0.0
53836.0,STARLINK-4778,PAYLOAD,2024-01-07 02:15:07,15.0883964,0.0001509,53.2153,252.425,97.8389,262.2775,0.00013284,1.827e-05,0.0,0 STARLINK-4778,1 53836U 22114U   24007.09383245  .00001827  00000-0  13284-3 0  9991,2 53836  53.2153 252.4250 0001509  97.8389 262.2775 15.08839640 72773,6917.881,95.438,540.79,538.703,0.0
53836.0,STARLINK-4778,PAYLOAD,2024-01-07 22:55:08,15.08839566,0.0001612,53.2159,248.5587,92.9802,267.1374,9.1075e-05,1.162e-05,0.0,0 STARLINK-4778,1 53836U 22114U   24007.95495440  .00001162  00000-0  91075-4 0  9994,2 53836  53.2159 248.5587 0001612  92.9802 267.1374 15.08839566 73440,6917.882,95.438,540.862,538.632,0.0
53836.0,STARLINK-4778,PAYLOAD,2024-01-08 19:35:09,15.0883809,0.000161,53.2158,244.6915,105.5735,254.5435,2.1477e-05,5.4e-07,0.0,0 STARLINK-4778,1 53836U 22114U   24008.81607873  .00000054  00000-0  21477-4 0  9993,2 53836  53.2158 244.6915 0001610 105.5735 254.5435 15.08838090 73039,6917.886,95.438,540.865,538.637,0.0
53836.0,STARLINK-4778,PAYLOAD,2024-01-08 22:45:56,15.08809028,0.0001741,53.2158,244.0972,101.4606,258.6582,0.00042045,6.404e-05,0.0,0 STARLINK-4778,1 53836U 22114U   24008.94856734  .00006404  00000-0  42045-3 0  9997,2 53836  53.2158 244.0972 0001741 101.4606 258.6582 15.08809028 73591,6917.975,95.44,541.044,538.636,0.0
53836.0,STARLINK-4778,PAYLOAD,2024-01-09 19:25:56,15.08840933,0.0001553,53.2161,240.234,101.2701,258.8465,9.3845e-05,1.206e-05,0.0,0 STARLINK-4778,1 53836U 22114U   24009.80967782  .00001206  00000-0  93845-4 0  9999,2 53836  53.2161 240.2340 0001553 101.2701 258.8465 15.08840933 73184,6917.878,95.437,540.817,538.668,0.0
53836.0,STARLINK-4778,PAYLOAD,2024-01-09 22:36:42,15.08842624,0.0001498,53.2158,239.6394,95.0906,265.0257,0.0001021,1.337e-05,0.0,0 STARLINK-4778,1 53836U 22114U   24009.94215679  .00001337  00000-0  10210-3 0  9994,2 53836  53.2158 239.6394 0001498  95.0906 265.0257 15.08842624 73746,6917.872,95.437,540.774,538.701,0.0
